{"type": "FeatureCollection", "features": [ {"type": "Feature", "properties": {"norad_id": 66624, "name": "STARLINK-35927", "group": "last-30-days", "lat": 15.454089357312537, "lon": -124.49319417396214, "alt_km": 326.05326901283297, "timestamp": "2025-12-05T07:38:17.629160+00:00", "meta": {"OBJECT_NAME": "STARLINK-35927", "OBJECT_ID": "2025-271H", "EPOCH": "2025-12-04T10:18:57.529728", "MEAN_MOTION": 15.81398589, "ECCENTRICITY": 0.000288, "INCLINATION": 53.1566, "RA_OF_ASC_NODE": 227.9976, "ARG_OF_PERICENTER": 55.085, "MEAN_ANOMALY": 305.0443, "EPHEMERIS_TYPE": 0, "CLASSIFICATION_TYPE": "U", "NORAD_CAT_ID": 66624, "ELEMENT_SET_NO": 999, "REV_AT_EPOCH": 290, "BSTAR": -0.0023985, "MEAN_MOTION_DOT": -0.0046107, "MEAN_MOTION_DDOT": 0}, "tle": {"line1": "1 66624U 25271H   25338.42983252 -.00461070  00000+0 -23985-2 0  9995", "line2": "2 66624  53.1566 227.9976 0002880  55.0850 305.0443 15.81398589  2902"}}, "geometry": {"type": "Point", "coordinates": [-124.49319417396214, 15.454089357312537]}}, {"type": "Feature", "properties": {"norad_id": 66625, "name": "STARLINK-35929", "group": "last-30-days", "lat": 17.960103155934934, "lon": -122.39655856579088, "alt_km": 329.17809940744246, "timestamp": "2025-12-05T07:38:17.629172+00:00", "meta": {"OBJECT_NAME": "STARLINK-35929", "OBJECT_ID": "2025-271J", "EPOCH": "2025-12-04T16:22:02.138016", "MEAN_MOTION": 15.80678643, "ECCENTRICITY": 0.0002822, "INCLINATION": 53.1566, "RA_OF_ASC_NODE": 226.7252, "ARG_OF_PERICENTER": 183.9562, "MEAN_ANOMALY": 176.1438, "EPHEMERIS_TYPE": 0, "CLASSIFICATION_TYPE": "U", "NORAD_CAT_ID": 66625, "ELEMENT_SET_NO": 999, "REV_AT_EPOCH": 294, "BSTAR": -0.00077252, "MEAN_MOTION_DOT": -0.00149281, "MEAN_MOTION_DDOT": 0}, "tle": {"line1": "1 66625U 25271J   25338.68196919 -.00149281  00000+0 -77252-3 0  9994", "line2": "2 66625  53.1566 226.7252 0002822 183.9562 176.1438 15.80678643  2940"}}, "geometry": {"type": "Point", "coordinates": [-122.39655856579088, 17.960103155934934]}}, {"type": "Feature", "properties": {"norad_id": 66626, "name": "STARLINK-35902", "group": "last-30-days", "lat": 46.33047801679931, "lon": -84.76736881576662, "alt_km": 248.8596274265792, "timestamp": "2025-12-05T07:38:17.629203+00:00", "meta": {"OBJECT_NAME": "STARLINK-35902", "OBJECT_ID": "2025-271K", "EPOCH": "2025-12-04T16:20:49.968096", "MEAN_MOTION": 15.86445814, "ECCENTRICITY": 0.0034757, "INCLINATION": 53.156, "RA_OF_ASC_NODE": 226.7204, "ARG_OF_PERICENTER": 215.7244, "MEAN_ANOMALY": 144.1456, "EPHEMERIS_TYPE": 0, "CLASSIFICATION_TYPE": "U", "NORAD_CAT_ID": 66626, "ELEMENT_SET_NO": 999, "REV_AT_EPOCH": 294, "BSTAR": 0.043583, "MEAN_MOTION_DOT": 0.08830048, "MEAN_MOTION_DDOT": 0.12235}, "tle": {"line1": "1 66626U 25271K   25338.68113389  .08830048  12235+0  43583-1 0  9990", "line2": "2 66626  53.1560 226.7204 0034757 215.7244 144.1456 15.86445814  2948"}}, "geometry": {"type": "Point", "coordinates": [-84.76736881576662, 46.33047801679931]}}, {"type": "Feature", "properties": {"norad_id": 66627, "name": "STARLINK-35904", "group": "last-30-days", "lat": 23.301619245695267, "lon": -117.63694868586796, "alt_km": 322.6782321325909, "timestamp": "2025-12-05T07:38:17.629215+00:00", "meta": {"OBJECT_NAME": "STARLINK-35904", "OBJECT_ID": "2025-271L", "EPOCH": "2025-12-04T07:14:32.665344", "MEAN_MOTION": 15.81754279, "ECCENTRICITY": 0.0004977, "INCLINATION": 53.1565, "RA_OF_ASC_NODE": 228.6202, "ARG_OF_PERICENTER": 9.6313, "MEAN_ANOMALY": 350.4805, "EPHEMERIS_TYPE": 0, "CLASSIFICATION_TYPE": "U", "NORAD_CAT_ID": 66627, "ELEMENT_SET_NO": 999, "REV_AT_EPOCH": 284, "BSTAR": -0.0026856, "MEAN_MOTION_DOT": -0.00521766, "MEAN_MOTION_DDOT": 0}, "tle": {"line1": "1 66627U 25271L   25338.30176696 -.00521766  00000+0 -26856-2 0  9990", "line2": "2 66627  53.1565 228.6202 0004977   9.6313 350.4805 15.81754279  2843"}}, "geometry": {"type": "Point", "coordinates": [-117.63694868586796, 23.301619245695267]}}, {"type": "Feature", "properties": {"norad_id": 66628, "name": "STARLINK-35862", "group": "last-30-days", "lat": 22.95481562988389, "lon": -117.96049027065659, "alt_km": 329.0596231569625, "timestamp": "2025-12-05T07:38:17.629225+00:00", "meta": {"OBJECT_NAME": "STARLINK-35862", "OBJECT_ID": "2025-271M", "EPOCH": "2025-12-04T16:20:16.507104", "MEAN_MOTION": 15.80528077, "ECCENTRICITY": 0.0002691, "INCLINATION": 53.1569, "RA_OF_ASC_NODE": 226.7167, "ARG_OF_PERICENTER": 198.6542, "MEAN_ANOMALY": 161.4382, "EPHEMERIS_TYPE": 0, "CLASSIFICATION_TYPE": "U", "NORAD_CAT_ID": 66628, "ELEMENT_SET_NO": 999, "REV_AT_EPOCH": 294, "BSTAR": -0.0011743, "MEAN_MOTION_DOT": -0.00223094, "MEAN_MOTION_DDOT": 0}, "tle": {"line1": "1 66628U 25271M   25338.68074661 -.00223094  00000+0 -11743-2 0  9993", "line2": "2 66628  53.1569 226.7167 0002691 198.6542 161.4382 15.80528077  2946"}}, "geometry": {"type": "Point", "coordinates": [-117.96049027065659, 22.95481562988389]}}, {"type": "Feature", "properties": {"norad_id": 66629, "name": "STARLINK-35956", "group": "last-30-days", "lat": 23.861589804065957, "lon": -117.10918284846035, "alt_km": 329.1105653379909, "timestamp": "2025-12-05T07:38:17.629234+00:00", "meta": {"OBJECT_NAME": "STARLINK-35956", "OBJECT_ID": "2025-271N", "EPOCH": "2025-12-04T16:19:41.434752", "MEAN_MOTION": 15.80317753, "ECCENTRICITY": 7.27e-05, "INCLINATION": 53.1566, "RA_OF_ASC_NODE": 226.7139, "ARG_OF_PERICENTER": 319.7999, "MEAN_ANOMALY": 40.2969, "EPHEMERIS_TYPE": 0, "CLASSIFICATION_TYPE": "U", "NORAD_CAT_ID": 66629, "ELEMENT_SET_NO": 999, "REV_AT_EPOCH": 294, "BSTAR": -0.0035198, "MEAN_MOTION_DOT": -0.00630509, "MEAN_MOTION_DDOT": 0}, "tle": {"line1": "1 66629U 25271N   25338.68034068 -.00630509  00000+0 -35198-2 0  9994", "line2": "2 66629  53.1566 226.7139 0000727 319.7999  40.2969 15.80317753  2945"}}, "geometry": {"type": "Point", "coordinates": [-117.10918284846035, 23.861589804065957]}}, {"type": "Feature", "properties": {"norad_id": 66630, "name": "STARLINK-35949", "group": "last-30-days", "lat": 32.61129260704165, "lon": -107.8357741112574, "alt_km": 320.43472269851645, "timestamp": "2025-12-05T07:38:17.629244+00:00", "meta": {"OBJECT_NAME": "STARLINK-35949", "OBJECT_ID": "2025-271P", "EPOCH": "2025-12-04T16:18:42.866784", "MEAN_MOTION": 15.82414283, "ECCENTRICITY": 0.0013011, "INCLINATION": 53.1561, "RA_OF_ASC_NODE": 226.7087, "ARG_OF_PERICENTER": 255.5421, "MEAN_ANOMALY": 104.4159, "EPHEMERIS_TYPE": 0, "CLASSIFICATION_TYPE": "U", "NORAD_CAT_ID": 66630, "ELEMENT_SET_NO": 999, "REV_AT_EPOCH": 294, "BSTAR": 0.0072798, "MEAN_MOTION_DOT": 0.01751673, "MEAN_MOTION_DDOT": 0}, "tle": {"line1": "1 66630U 25271P   25338.67966281  .01751673  00000+0  72798-2 0  9998", "line2": "2 66630  53.1561 226.7087 0013011 255.5421 104.4159 15.82414283  2943"}}, "geometry": {"type": "Point", "coordinates": [-107.8357741112574, 32.61129260704165]}}, {"type": "Feature", "properties": {"norad_id": 66631, "name": "STARLINK-35965", "group": "last-30-days", "lat": 30.11375147573539, "lon": -110.7195517442053, "alt_km": 324.1128453850006, "timestamp": "2025-12-05T07:38:17.629254+00:00", "meta": {"OBJECT_NAME": "STARLINK-35965", "OBJECT_ID": "2025-271Q", "EPOCH": "2025-12-04T07:12:21.034944", "MEAN_MOTION": 15.81776671, "ECCENTRICITY": 0.0001135, "INCLINATION": 53.1568, "RA_OF_ASC_NODE": 228.6092, "ARG_OF_PERICENTER": 128.5518, "MEAN_ANOMALY": 231.5607, "EPHEMERIS_TYPE": 0, "CLASSIFICATION_TYPE": "U", "NORAD_CAT_ID": 66631, "ELEMENT_SET_NO": 999, "REV_AT_EPOCH": 288, "BSTAR": -0.0020618, "MEAN_MOTION_DOT": -0.004058, "MEAN_MOTION_DDOT": 0}, "tle": {"line1": "1 66631U 25271Q   25338.30024346 -.00405800  00000+0 -20618-2 0  9999", "line2": "2 66631  53.1568 228.6092 0001135 128.5518 231.5607 15.81776671  2882"}}, "geometry": {"type": "Point", "coordinates": [-110.7195517442053, 30.11375147573539]}}, {"type": "Feature", "properties": {"norad_id": 66632, "name": "STARLINK-35973", "group": "last-30-days", "lat": 36.280102644507465, "lon": -103.11974552936542, "alt_km": 321.6315769982739, "timestamp": "2025-12-05T07:38:17.629266+00:00", "meta": {"OBJECT_NAME": "STARLINK-35973", "OBJECT_ID": "2025-271R", "EPOCH": "2025-12-04T14:46:28.363584", "MEAN_MOTION": 15.82712657, "ECCENTRICITY": 0.0011942, "INCLINATION": 53.1558, "RA_OF_ASC_NODE": 227.0207, "ARG_OF_PERICENTER": 219.0109, "MEAN_ANOMALY": 141.0054, "EPHEMERIS_TYPE": 0, "CLASSIFICATION_TYPE": "U", "NORAD_CAT_ID": 66632, "ELEMENT_SET_NO": 999, "REV_AT_EPOCH": 289, "BSTAR": 0.0047215, "MEAN_MOTION_DOT": 0.0113708, "MEAN_MOTION_DDOT": 0}, "tle": {"line1": "1 66632U 25271R   25338.61560606  .01137080  00000+0  47215-2 0  9991", "line2": "2 66632  53.1558 227.0207 0011942 219.0109 141.0054 15.82712657  2899"}}, "geometry": {"type": "Point", "coordinates": [-103.11974552936542, 36.280102644507465]}}, {"type": "Feature", "properties": {"norad_id": 66633, "name": "STARLINK-35948", "group": "last-30-days", "lat": 34.685859269248404, "lon": -105.25120046618164, "alt_km": 320.95067059787925, "timestamp": "2025-12-05T07:38:17.629277+00:00", "meta": {"OBJECT_NAME": "STARLINK-35948", "OBJECT_ID": "2025-271S", "EPOCH": "2025-12-04T07:11:12.702048", "MEAN_MOTION": 15.81911377, "ECCENTRICITY": 0.0001739, "INCLINATION": 53.156, "RA_OF_ASC_NODE": 228.6031, "ARG_OF_PERICENTER": 302.1786, "MEAN_ANOMALY": 57.9069, "EPHEMERIS_TYPE": 0, "CLASSIFICATION_TYPE": "U", "NORAD_CAT_ID": 66633, "ELEMENT_SET_NO": 999, "REV_AT_EPOCH": 288, "BSTAR": -9.8825e-05, "MEAN_MOTION_DOT": -0.0002113, "MEAN_MOTION_DDOT": 0}, "tle": {"line1": "1 66633U 25271S   25338.29945257 -.00021130  00000+0 -98825-4 0  9999", "line2": "2 66633  53.1560 228.6031 0001739 302.1786  57.9069 15.81911377  2882"}}, "geometry": {"type": "Point", "coordinates": [-105.25120046618164, 34.685859269248404]}}]}